COMMENT,ORIGINATOR,NORAD_CAT_ID,OBJECT_NAME,OBJECT_TYPE,CLASSIFICATION_TYPE,INTLDES,EPOCH,EPOCH_MICROSECONDS,MEAN_MOTION,ECCENTRICITY,INCLINATION,RA_OF_ASC_NODE,ARG_OF_PERICENTER,MEAN_ANOMALY,EPHEMERIS_TYPE,ELEMENT_SET_NO,REV_AT_EPOCH,BSTAR,MEAN_MOTION_DOT,MEAN_MOTION_DDOT,FILE,TLE_LINE0,TLE_LINE1,TLE_LINE2,OBJECT_ID,OBJECT_NUMBER,SEMIMAJOR_AXIS,PERIOD,APOGEE,PERIGEE,DECAYED,date
GENERATED VIA SPACETRACK.ORG API,18 SPCS,48888,SPACEBEE-103,PAYLOAD,U,21059K,2023/2/26 19:44,550048,15.23807089,0.0007866,97.5792,192.8056,295.2439,64.7982,0,999,9254,0.0013147,0.00031722,0,3843368,0 SPACEBEE-103,1 48888U 21059K   23057.82246007  .00031722  00000-0  13147-2 0  9992,2 48888  97.5792 192.8056 0007866 295.2439  64.7982 15.23807089 92548,2021-059K,48888,6872.507,94.5,499.778,488.966,0,2023/4/26
GENERATED VIA SPACETRACK.ORG API,18 SPCS,48888,SPACEBEE-103,PAYLOAD,U,21059K,2023/2/26 22:53,806784,15.2381212,0.0007899,97.5793,192.9384,294.8206,65.2209,0,999,9256,0.0012147,0.00029298,0,3846396,0 SPACEBEE-103,1 48888U 21059K   23057.95379406  .00029298  00000-0  12147-2 0  9990,2 48888  97.5793 192.9384 0007899 294.8206  65.2209 15.23812120 92569,2021-059K,48888,6872.492,94.5,499.785,488.928,0,2023/4/27
GENERATED VIA SPACETRACK.ORG API,18 SPCS,48888,SPACEBEE-103,PAYLOAD,U,21059K,2023/2/27 8:20,145856,15.23870343,0.0007937,97.5791,193.3367,293.6706,66.3698,0,999,9262,0.0031548,0.0007683,0,3846698,0 SPACEBEE-103,1 48888U 21059K   23058.34779104  .00076830  00000-0  31548-2 0  9993,2 48888  97.5791 193.3367 0007937 293.6706  66.3698 15.23870343 92620,2021-059K,48888,6872.317,94.496,499.636,488.727,0,2023/4/28
GENERATED VIA SPACETRACK.ORG API,18 SPCS,48888,SPACEBEE-103,PAYLOAD,U,21059K,2023/2/27 19:22,607776,15.23897929,0.0007974,97.5791,193.8011,291.5825,68.4562,0,999,9269,0.0020333,0.0004935,0,3846812,0 SPACEBEE-103,1 48888U 21059K   23058.80743759  .00049350  00000-0  20333-2 0  9998,2 48888  97.5791 193.8011 0007974 291.5825  68.4562 15.23897929 92690,2021-059K,48888,6872.234,94.495,499.579,488.619,0,2023/4/29
GENERATED VIA SPACETRACK.ORG API,18 SPCS,48888,SPACEBEE-103,PAYLOAD,U,21059K,2023/2/27 22:31,122336,15.23910858,0.0008,97.5791,193.9338,291.1374,68.9007,0,999,9271,0.0020114,0.00048834,0,3847191,0 SPACEBEE-103,1 48888U 21059K   23058.93876299  .00048834  00000-0  20114-2 0  9991,2 48888  97.5791 193.9338 0008000 291.1374  68.9007 15.23910858 92718,2021-059K,48888,6872.195,94.494,499.558,488.562,0,2023/4/30
GENERATED VIA SPACETRACK.ORG API,18 SPCS,48888,SPACEBEE-103,PAYLOAD,U,21059K,2023/2/28 7:59,187360,15.23945513,0.0008036,97.5792,194.3318,289.7821,70.2548,0,999,9277,0.0018284,0.00044404,0,3847542,0 SPACEBEE-103,1 48888U 21059K   23059.33273365  .00044404  00000-0  18284-2 0  9995,2 48888  97.5792 194.3318 0008036 289.7821  70.2548 15.23945513 92779,2021-059K,48888,6872.091,94.492,499.478,488.433,0,
GENERATED VIA SPACETRACK.ORG API,18 SPCS,48888,SPACEBEE-103,PAYLOAD,U,21059K,2023/2/28 22:10,551104,15.23981986,0.0008069,97.5792,194.9291,287.9103,72.1253,0,999,9286,0.0012184,0.00029538,0,3847656,0 SPACEBEE-103,1 48888U 21059K   23059.92367536  .00029538  00000-0  12184-2 0  9998,2 48888  97.5792 194.9291 0008069 287.9103  72.1253 15.23981986 92862,2021-059K,48888,6871.981,94.489,499.391,488.301,0,
GENERATED VIA SPACETRACK.ORG API,18 SPCS,48888,SPACEBEE-103,PAYLOAD,U,21059K,2023/2/28 22:10,551104,15.23981986,0.0008069,97.5792,194.9291,287.9103,72.1253,0,999,9286,0.0012184,0.00029538,0,3847845,0 SPACEBEE-103,1 48888U 21059K   23059.92367536  .00029538  00000-0  12184-2 0  9998,2 48888  97.5792 194.9291 0008069 287.9103  72.1253 15.23981986 92862,2021-059K,48888,6871.981,94.489,499.391,488.301,0,
GENERATED VIA SPACETRACK.ORG API,18 SPCS,48888,SPACEBEE-103,PAYLOAD,U,21059K,2023/3/1 7:37,2176,15.24014834,0.0008016,97.5791,195.3276,286.2853,73.7502,0,999,9292,0.0014897,0.00036199,0,3848730,0 SPACEBEE-103,1 48888U 21059K   23060.31762734  .00036199  00000-0  14897-2 0  9996,2 48888  97.5791 195.3276 0008016 286.2853  73.7502 15.24014834 92926,2021-059K,48888,6871.882,94.487,499.256,488.239,0,
GENERATED VIA SPACETRACK.ORG API,18 SPCS,48888,SPACEBEE-103,PAYLOAD,U,21059K,2023/3/1 21:48,127296,15.24049883,0.0007982,97.5794,195.9251,284.1853,75.8497,0,999,9301,0.0012169,0.00029561,0,3848834,0 SPACEBEE-103,1 48888U 21059K   23060.90854314  .00029561  00000-0  12169-2 0  9992,2 48888  97.5794 195.9251 0007982 284.1853  75.8497 15.24049883 93015,2021-059K,48888,6871.777,94.485,499.127,488.157,0,
GENERATED VIA SPACETRACK.ORG API,18 SPCS,48888,SPACEBEE-103,PAYLOAD,U,21059K,2023/3/2 19:51,504288,15.24116392,0.0007962,97.5795,196.8545,281.0774,78.9568,0,999,9315,0.0013943,0.00033968,0,3849487,0 SPACEBEE-103,1 48888U 21059K   23061.82771417  .00033968  00000-0  13943-2 0  9993,2 48888  97.5795 196.8545 0007962 281.0774  78.9568 15.24116392 93156,2021-059K,48888,6871.577,94.481,498.913,487.971,0,
GENERATED VIA SPACETRACK.ORG API,18 SPCS,48888,SPACEBEE-103,PAYLOAD,U,21059K,2023/3/3 8:28,673856,15.24164123,0.0007984,97.5793,197.3856,279.2374,80.796,0,999,9323,0.0018522,0.0004528,0,3849888,0 SPACEBEE-103,1 48888U 21059K   23062.35293604  .00045280  00000-0  18522-2 0  9997,2 48888  97.5793 197.3856 0007984 279.2374  80.7960 15.24164123 93235,2021-059K,48888,6871.434,94.478,498.785,487.812,0,
GENERATED VIA SPACETRACK.ORG API,18 SPCS,48888,SPACEBEE-103,PAYLOAD,U,21059K,2023/3/3 8:28,673856,15.24164123,0.0007984,97.5793,197.3856,279.2374,80.796,0,999,9323,0.0018522,0.0004528,0,3850163,0 SPACEBEE-103,1 48888U 21059K   23062.35293604  .00045280  00000-0  18522-2 0  9997,2 48888  97.5793 197.3856 0007984 279.2374  80.7960 15.24164123 93235,2021-059K,48888,6871.434,94.478,498.785,487.812,0,
GENERATED VIA SPACETRACK.ORG API,18 SPCS,48888,SPACEBEE-103,PAYLOAD,U,21059K,2023/3/3 21:04,422144,15.24208801,0.0008033,97.5793,197.9167,277.3578,82.6746,0,999,9331,0.0017246,0.00042195,0,3850400,0 SPACEBEE-103,1 48888U 21059K   23062.87814146  .00042195  00000-0  17246-2 0  9998,2 48888  97.5793 197.9167 0008033 277.3578  82.6746 15.24208801 93311,2021-059K,48888,6871.299,94.475,498.684,487.645,0,
GENERATED VIA SPACETRACK.ORG API,18 SPCS,48888,SPACEBEE-103,PAYLOAD,U,21059K,2023/3/4 8:06,777504,15.24254887,0.0008085,97.5793,198.3814,275.9404,84.0911,0,999,9338,0.0019918,0.00048855,0,3851072,0 SPACEBEE-103,1 48888U 21059K   23063.33768261  .00048855  00000-0  19918-2 0  9993,2 48888  97.5793 198.3814 0008085 275.9404  84.0911 15.24254887 93386,2021-059K,48888,6871.161,94.472,498.581,487.47,0,
GENERATED VIA SPACETRACK.ORG API,18 SPCS,48888,SPACEBEE-103,PAYLOAD,U,21059K,2023/3/5 6:09,255136,15.24337723,0.0008134,97.5792,199.3102,274.2969,85.7338,0,999,9352,0.0019552,0.00048069,0,3851554,0 SPACEBEE-103,1 48888U 21059K   23064.25672749  .00048069  00000-0  19552-2 0  9991,2 48888  97.5792 199.3102 0008134 274.2969  85.7338 15.24337723 93527,2021-059K,48888,6870.912,94.467,498.366,487.188,0,
GENERATED VIA SPACETRACK.ORG API,18 SPCS,48888,SPACEBEE-103,PAYLOAD,U,21059K,2023/3/5 14:02,259232,15.2436789,0.0008122,97.5799,199.6428,272.3181,87.7126,0,999,9357,0.0019429,0.00047808,0,3851939,0 SPACEBEE-103,1 48888U 21059K   23064.58494513  .00047808  00000-0  19429-2 0  9991,2 48888  97.5799 199.6428 0008122 272.3181  87.7126 15.24367890 93570,2021-059K,48888,6870.821,94.465,498.267,487.106,0,
GENERATED VIA SPACETRACK.ORG API,18 SPCS,48888,SPACEBEE-103,PAYLOAD,U,21059K,2023/3/5 21:54,641248,15.24401092,0.0008039,97.58,199.9749,270.5553,89.4763,0,999,9362,0.0019572,0.00048209,0,3852256,0 SPACEBEE-103,1 48888U 21059K   23064.91315557  .00048209  00000-0  19572-2 0  9993,2 48888  97.5800 199.9749 0008039 270.5553  89.4763 15.24401092 93627,2021-059K,48888,6870.721,94.463,498.11,487.063,0,
GENERATED VIA SPACETRACK.ORG API,18 SPCS,48888,SPACEBEE-103,PAYLOAD,U,21059K,2023/3/6 7:22,630656,15.24446068,0.0008016,97.5801,200.3734,269.356,90.6758,0,999,9368,0.0021651,0.00053447,0,3852783,0 SPACEBEE-103,1 48888U 21059K   23065.30699804  .00053447  00000-0  21651-2 0  9998,2 48888  97.5801 200.3734 0008016 269.3560  90.6758 15.24446068 93684,2021-059K,48888,6870.586,94.461,497.959,486.944,0,
GENERATED VIA SPACETRACK.ORG API,18 SPCS,48888,SPACEBEE-103,PAYLOAD,U,21059K,2023/3/6 7:22,630656,15.24446068,0.0008016,97.5801,200.3734,269.356,90.6758,0,999,9368,0.0021651,0.00053447,0,3853141,0 SPACEBEE-103,1 48888U 21059K   23065.30699804  .00053447  00000-0  21651-2 0  9998,2 48888  97.5801 200.3734 0008016 269.3560  90.6758 15.24446068 93684,2021-059K,48888,6870.586,94.461,497.959,486.944,0,
GENERATED VIA SPACETRACK.ORG API,18 SPCS,48888,SPACEBEE-103,PAYLOAD,U,21059K,2023/3/7 8:34,741312,15.24549966,0.0008004,97.5805,201.4359,265.6954,94.3368,0,999,9384,0.0021157,0.0005238,0,3853720,0 SPACEBEE-103,1 48888U 21059K   23066.35719608  .00052380  00000-0  21157-2 0  9995,2 48888  97.5805 201.4359 0008004 265.6954  94.3368 15.24549966 93843,2021-059K,48888,6870.274,94.454,497.638,486.64,0,
GENERATED VIA SPACETRACK.ORG API,18 SPCS,48888,SPACEBEE-103,PAYLOAD,U,21059K,2023/3/7 14:52,28832,15.24576434,0.0008019,97.5805,201.7015,264.7646,95.2676,0,999,9388,0.0021178,0.00052474,0,3854072,0 SPACEBEE-103,1 48888U 21059K   23066.61973413  .00052474  00000-0  21178-2 0  9997,2 48888  97.5805 201.7015 0008019 264.7646  95.2676 15.24576434 93885,2021-059K,48888,6870.195,94.452,497.569,486.55,0,
GENERATED VIA SPACETRACK.ORG API,18 SPCS,48888,SPACEBEE-103,PAYLOAD,U,21059K,2023/3/8 14:30,985056,15.2467842,0.0008087,97.5806,202.6974,261.9412,98.0908,0,999,9403,0.0024117,0.0006001,0,3854636,0 SPACEBEE-103,1 48888U 21059K   23067.60421279  .00060010  00000-0  24117-2 0  9996,2 48888  97.5806 202.6974 0008087 261.9412  98.0908 15.24678420 94030,2021-059K,48888,6869.888,94.446,497.309,486.198,0,
